IRIDIUM 138             
1 43071U 17083B   26180.38642580 -.00000002  00000+0 -77485-5 0  9996
2 43071  86.3986 316.6124 0002072  87.2916 272.8517 14.34217464445881
IRIDIUM 116             
1 43072U 17083C   26180.42448134  .00000014  00000+0 -21660-5 0  9997
2 43072  86.3975 316.8846 0002221 101.3039 258.8406 14.34217591445920
IRIDIUM 130             
1 43073U 17083D   26180.46253543  .00000096  00000+0  27086-4 0  9996
2 43073  86.3983 317.1452 0002021  97.6305 262.5120 14.34217651445874
IRIDIUM 151             
1 43074U 17083E   26180.43716646  .00000016  00000+0 -12100-5 0  9997
2 43074  86.3973 316.9375 0002094  94.1632 265.9803 14.34217585445893
IRIDIUM 134             
1 43075U 17083F   26180.47522045  .00000181  00000+0  57447-4 0  9994
2 43075  86.3977 316.9295 0002167  95.1298 265.0145 14.34217210445861
IRIDIUM 137             
1 43076U 17083G   26180.41813934  .00000022  00000+0  64213-6 0  9994
2 43076  86.3978 317.0465 0002536 100.4876 259.6605 14.34217683445927
IRIDIUM 141             
1 43077U 17083H   26180.41179610 -.00000006  00000+0 -91957-5 0  9999
2 43077  86.3971 316.8793 0002080  91.6894 268.4540 14.34217416445927
IRIDIUM 153             
1 43078U 17083J   26180.36397503  .00000018  00000+0 -67142-6 0  9999
2 43078  86.3967 285.3799 0002167  91.3162 268.8282 14.34217534447021
IRIDIUM 131             
1 43079U 17083K   26180.39911127  .00000241  00000+0  78952-4 0  9993
2 43079  86.3978 317.0709 0002252  94.1868 265.9585 14.34217300445851
IRIDIUM 144             
1 43249U 18030A   26180.37031593  .00000021  00000+0  32737-6 0  9992
2 43249  86.3962 285.3061 0002108  98.6728 261.4706 14.34216619431881
IRIDIUM 149             
1 43250U 18030B   26180.37666013  .00000026  00000+0  20741-5 0  9991
2 43250  86.3964 285.2703 0002304  93.4881 266.6578 14.34217721431900
IRIDIUM 157             
1 43251U 18030C   26180.32591926  .00000236  00000+0  77194-4 0  9993
2 43251  86.3963 285.3445 0002219  94.4398 265.7052 14.34217575431873
IRIDIUM 140             
1 43252U 18030D   26180.34494696  .00000041  00000+0  75536-5 0  9995
2 43252  86.3965 285.3494 0002169  95.3168 264.8275 14.34217250431933
IRIDIUM 145             
1 43253U 18030E   26180.33225441  .00000180  00000+0  57248-4 0  9998
2 43253  86.3964 285.3268 0002197 102.3748 257.7694 14.34221683431869
IRIDIUM 146             
1 43254U 18030F   26180.38300286  .00000048  00000+0  10246-4 0  9995
2 43254  86.3966 285.3181 0002281  97.6050 262.5405 14.34217728431883
IRIDIUM 148             
1 43255U 18030G   26180.35129000 -.00000006  00000+0 -92522-5 0  9990
2 43255  86.3963 285.3747 0002220  95.6223 264.5226 14.34217456431917
IRIDIUM 142             
1 43256U 18030H   26180.31957694  .00000002  00000+0 -62585-5 0  9996
2 43256  86.3959 285.2764 0002185  99.6911 260.4531 14.34217484431879
IRIDIUM 150             
1 43257U 18030J   26180.35763204  .00000092  00000+0  25683-4 0  9998
2 43257  86.3966 285.3771 0002145  95.4571 264.6870 14.34217168431904
IRIDIUM 143             
1 43258U 18030K   26180.33860198  .00000241  00000+0  78866-4 0  9994
2 43258  86.3968 285.4781 0002206  98.0033 262.1413 14.34219476431831
IRIDIUM 161             
1 43478U 18047C   26179.81657482  .00000115  00000+0  28071-4 0  9990
2 43478  86.4483  83.6091 0002500  81.1688 278.9796 14.43278016426812
IRIDIUM 152             
1 43479U 18047D   26179.96248007 -.00000249  00000+0 -96019-4 0  9993
2 43479  86.3953  83.4088 0002175  81.8690 278.2753 14.34216617424178
IRIDIUM 147             
1 43480U 18047E   26179.96882163  .00000084  00000+0  23062-4 0  9995
2 43480  86.3956  83.4118 0002187  87.2255 272.9191 14.34218255424174
IRIDIUM 110             
1 43481U 18047F   26179.97516585  .00000021  00000+0  42068-6 0  9999
2 43481  86.3958  83.5014 0002448  77.9270 282.2200 14.34217492424162
IRIDIUM 162             
1 43482U 18047G   26179.81027460  .00000298  00000+0  82736-4 0  9992
2 43482  86.4479  83.5025 0002266  83.2246 276.9213 14.43280136426807
IRIDIUM 160             
1 43569U 18061A   26180.13030647  .00000007  00000+0 -47080-5 0  9995
2 43569  86.3949  51.8027 0002136  85.7414 274.4026 14.34217575415084
IRIDIUM 166             
1 43570U 18061B   26179.73706527  .00000044  00000+0  86465-5 0  9998
2 43570  86.3952  51.9179 0002187  88.9037 271.2409 14.34217809415058
IRIDIUM 158             
1 43571U 18061C   26179.70535248  .00000082  00000+0  22081-4 0  9991
2 43571  86.3949  51.9410 0002133  84.0050 276.1389 14.34217754415012
IRIDIUM 165             
1 43572U 18061D   26180.14933426  .00000043  00000+0  81841-5 0  9999
2 43572  86.3952  51.8019 0002146  89.8904 270.2538 14.34217461415102
IRIDIUM 155             
1 43573U 18061E   26179.69266729  .00000043  00000+0  81224-5 0  9998
2 43573  86.3949  51.8614 0002071  85.2834 274.8599 14.34217804415006
IRIDIUM 154             
1 43574U 18061F   26179.74340840  .00000034  00000+0  50042-5 0  9996
2 43574  86.3952  51.9744 0002195  89.3902 270.7545 14.34217614415065
IRIDIUM 163             
1 43575U 18061G   26180.14299184  .00000071  00000+0  18252-4 0  9994
2 43575  86.3949  51.7222 0002187  83.8633 276.2812 14.34217827415099
